{
  "norad_id": 62580,
  "name": "CENTISPACE-1 S11",
  "history": [
    {
      "epoch": "2026-03-28T20:18:03.558528Z",
      "apogee_km": 968.2310975714381,
      "perigee_km": 955.6752860910947,
      "latitude_deg": 4.996236415009329e-06,
      "longitude_deg": 81.3068084065397,
      "height_km": 959.6479957141397,
      "semi_major_axis_km": 7340.090191831266,
      "eccentricity": 0.00085529,
      "inclination_deg": 54.977,
      "raan_deg": 212.0821,
      "arg_perigee_deg": 302.0467,
      "mean_anomaly_deg": 57.9658,
      "mean_motion_rev_day": 13.80545318
    },
    {
      "epoch": "2026-03-29T03:15:07.257888Z",
      "apogee_km": 968.2435817217538,
      "perigee_km": 955.6626672483862,
      "latitude_deg": -3.4452214474368165e-05,
      "longitude_deg": -24.25690164622793,
      "height_km": 959.5791425912053,
      "semi_major_axis_km": 7340.090124485069,
      "eccentricity": 0.000857,
      "inclination_deg": 54.977,
      "raan_deg": 211.0693,
      "arg_perigee_deg": 302.7167,
      "mean_anomaly_deg": 57.2962,
      "mean_motion_rev_day": 13.80545337
    },
    {
      "epoch": "2026-03-30T00:06:18.330912Z",
      "apogee_km": 968.2823380627387,
      "perigee_km": 955.6206853800204,
      "latitude_deg": 5.941172649702455e-05,
      "longitude_deg": 19.05232124213726,
      "height_km": 959.3714452506553,
      "semi_major_axis_km": 7340.088511721379,
      "eccentricity": 0.0008625,
      "inclination_deg": 54.977,
      "raan_deg": 208.031,
      "arg_perigee_deg": 304.7215,
      "mean_anomaly_deg": 55.2929,
      "mean_motion_rev_day": 13.80545792
    }
  ]
}